{
  "type": "FeatureCollection",
  "features": [
    {
      "type": "Feature",
      "properties": {
        "norad_id": 39617,
        "name": "ASTRA 5B (EGNOS/PRN 123)",
        "group": "gnss",
        "lat": 0.05498298817144334,
        "lon": 67.73364735641718,
        "alt_km": 35802.72618581398,
        "timestamp": "2025-12-24T20:42:21.269284+00:00",
        "meta_object_name": "ASTRA 5B (EGNOS/PRN 123)",
        "meta_object_id": "2014-011B",
        "meta_epoch": "2025-12-24T06:21:51.349824",
        "meta_mean_motion": 1.00270903,
        "meta_eccentricity": 0.0004581,
        "meta_inclination": 0.0443,
        "meta_ra_of_asc_node": 11.6983,
        "meta_arg_of_pericenter": 267.911,
        "meta_mean_anomaly": 292.3909,
        "meta_ephemeris_type": 0,
        "meta_classification_type": "U",
        "meta_norad_cat_id": 39617,
        "meta_element_set_no": 999,
        "meta_rev_at_epoch": 4291,
        "meta_bstar": 0,
        "meta_mean_motion_dot": 1.58e-06,
        "meta_mean_motion_ddot": 0,
        "tle_line1": "1 39617U 14011B   25358.26517766  .00000158  00000+0  00000+0 0  9998",
        "tle_line2": "2 39617   0.0443  11.6983 0004581 267.9110 292.3909  1.00270903 42913"
      },
      "geometry": {
        "type": "Point",
        "coordinates": [
          67.73364735641718,
          0.05498298817144334
        ]
      }
    },
    {
      "type": "Feature",
      "properties": {
        "norad_id": 39620,
        "name": "COSMOS 2492 (754)",
        "group": "gnss",
        "lat": 57.7387953599066,
        "lon": 6.33089283085173,
        "alt_km": 19138.828396837394,
        "timestamp": "2025-12-24T20:42:21.269298+00:00",
        "meta_object_name": "COSMOS 2492 (754)",
        "meta_object_id": "2014-012A",
        "meta_epoch": "2025-12-21T22:59:34.433088",
        "meta_mean_motion": 2.13103396,
        "meta_eccentricity": 0.00142426,
        "meta_inclination": 65.4026,
        "meta_ra_of_asc_node": 319.9579,
        "meta_arg_of_pericenter": 313.3292,
        "meta_mean_anomaly": 46.5466,
        "meta_ephemeris_type": 0,
        "meta_classification_type": "U",
        "meta_norad_cat_id": 39620,
        "meta_element_set_no": 999,
        "meta_rev_at_epoch": 9146,
        "meta_bstar": 0,
        "meta_mean_motion_dot": -4.2e-07,
        "meta_mean_motion_ddot": 0,
        "tle_line1": "1 39620U 14012A   25355.95803742 -.00000042  00000+0  00000+0 0  9991",
        "tle_line2": "2 39620  65.4026 319.9579 0014242 313.3292  46.5466  2.13103396 91463"
      },
      "geometry": {
        "type": "Point",
        "coordinates": [
          6.33089283085173,
          57.7387953599066
        ]
      }
    },
    {
      "type": "Feature",
      "properties": {
        "norad_id": 39635,
        "name": "IRNSS-1B",
        "group": "gnss",
        "lat": -16.681255827868895,
        "lon": 95.82063808565303,
        "alt_km": 35728.71537449514,
        "timestamp": "2025-12-24T20:42:21.269309+00:00",
        "meta_object_name": "IRNSS-1B",
        "meta_object_id": "2014-017A",
        "meta_epoch": "2025-12-23T18:31:43.277952",
        "meta_mean_motion": 1.00271787,
        "meta_eccentricity": 0.00185524,
        "meta_inclination": 29.2369,
        "meta_ra_of_asc_node": 243.4044,
        "meta_arg_of_pericenter": 175.251,
        "meta_mean_anomaly": 6.964,
        "meta_ephemeris_type": 0,
        "meta_classification_type": "U",
        "meta_norad_cat_id": 39635,
        "meta_element_set_no": 999,
        "meta_rev_at_epoch": 4303,
        "meta_bstar": 0,
        "meta_mean_motion_dot": 1.43e-06,
        "meta_mean_motion_ddot": 0,
        "tle_line1": "1 39635U 14017A   25357.77202868  .00000143  00000+0  00000+0 0  9997",
        "tle_line2": "2 39635  29.2369 243.4044 0018552 175.2510   6.9640  1.00271787 43030"
      },
      "geometry": {
        "type": "Point",
        "coordinates": [
          95.82063808565303,
          -16.681255827868895
        ]
      }
    },
    {
      "type": "Feature",
      "properties": {
        "norad_id": 39727,
        "name": "LUCH 5V (SDCM/PRN 141)",
        "group": "gnss",
        "lat": 4.358336765034308,
        "lon": 138.86361944500777,
        "alt_km": 35797.9702578171,
        "timestamp": "2025-12-24T20:42:21.269321+00:00",
        "meta_object_name": "LUCH 5V (SDCM/PRN 141)",
        "meta_object_id": "2014-023A",
        "meta_epoch": "2025-12-24T06:42:04.413600",
        "meta_mean_motion": 1.00274577,
        "meta_eccentricity": 0.00037214,
        "meta_inclination": 4.6971,
        "meta_ra_of_asc_node": 71.441,
        "meta_arg_of_pericenter": 214.3117,
        "meta_mean_anomaly": 2.5553,
        "meta_ephemeris_type": 0,
        "meta_classification_type": "U",
        "meta_norad_cat_id": 39727,
        "meta_element_set_no": 999,
        "meta_rev_at_epoch": 4260,
        "meta_bstar": 0,
        "meta_mean_motion_dot": -2.5e-06,
        "meta_mean_motion_ddot": 0,
        "tle_line1": "1 39727U 14023A   25358.27921775 -.00000250  00000+0  00000+0 0  9997",
        "tle_line2": "2 39727   4.6971  71.4410 0003721 214.3117   2.5553  1.00274577 42601"
      },
      "geometry": {
        "type": "Point",
        "coordinates": [
          138.86361944500777,
          4.358336765034308
        ]
      }
    },
    {
      "type": "Feature",
      "properties": {
        "norad_id": 39741,
        "name": "GPS BIIF-6  (PRN 06)",
        "group": "gnss",
        "lat": -51.52095556838362,
        "lon": -77.86019511006512,
        "alt_km": 20096.252132929283,
        "timestamp": "2025-12-24T20:42:21.269332+00:00",
        "meta_object_name": "GPS BIIF-6  (PRN 06)",
        "meta_object_id": "2014-026A",
        "meta_epoch": "2025-12-23T23:04:28.187040",
        "meta_mean_motion": 2.00560551,
        "meta_eccentricity": 0.0039456,
        "meta_inclination": 56.5792,
        "meta_ra_of_asc_node": 338.3401,
        "meta_arg_of_pericenter": 319.3147,
        "meta_mean_anomaly": 40.3961,
        "meta_ephemeris_type": 0,
        "meta_classification_type": "U",
        "meta_norad_cat_id": 39741,
        "meta_element_set_no": 999,
        "meta_rev_at_epoch": 8502,
        "meta_bstar": 0,
        "meta_mean_motion_dot": -6e-07,
        "meta_mean_motion_ddot": 0,
        "tle_line1": "1 39741U 14026A   25357.96143735 -.00000060  00000+0  00000+0 0  9992",
        "tle_line2": "2 39741  56.5792 338.3401 0039456 319.3147  40.3961  2.00560551 85029"
      },
      "geometry": {
        "type": "Point",
        "coordinates": [
          -77.86019511006512,
          -51.52095556838362
        ]
      }
    },
    {
      "type": "Feature",
      "properties": {
        "norad_id": 40001,
        "name": "COSMOS 2500 (755)",
        "group": "gnss",
        "lat": -54.45508786396178,
        "lon": -80.38173294886157,
        "alt_km": 19131.22859392464,
        "timestamp": "2025-12-24T20:42:21.269344+00:00",
        "meta_object_name": "COSMOS 2500 (755)",
        "meta_object_id": "2014-032A",
        "meta_epoch": "2025-12-21T04:35:55.026240",
        "meta_mean_motion": 2.13106227,
        "meta_eccentricity": 0.00077299,
        "meta_inclination": 65.3386,
        "meta_ra_of_asc_node": 319.7453,
        "meta_arg_of_pericenter": 219.3736,
        "meta_mean_anomaly": 140.5635,
        "meta_ephemeris_type": 0,
        "meta_classification_type": "U",
        "meta_norad_cat_id": 40001,
        "meta_element_set_no": 999,
        "meta_rev_at_epoch": 8966,
        "meta_bstar": 0,
        "meta_mean_motion_dot": -4.7e-07,
        "meta_mean_motion_ddot": 0,
        "tle_line1": "1 40001U 14032A   25355.19160910 -.00000047  00000+0  00000+0 0  9992",
        "tle_line2": "2 40001  65.3386 319.7453 0007729 219.3736 140.5635  2.13106227 89663"
      },
      "geometry": {
        "type": "Point",
        "coordinates": [
          -80.38173294886157,
          -54.45508786396178
        ]
      }
    },
    {
      "type": "Feature",
      "properties": {
        "norad_id": 40105,
        "name": "GPS BIIF-7  (PRN 09)",
        "group": "gnss",
        "lat": -38.2324841237096,
        "lon": -51.457975271602606,
        "alt_km": 20213.19966878511,
        "timestamp": "2025-12-24T20:42:21.269355+00:00",
        "meta_object_name": "GPS BIIF-7  (PRN 09)",
        "meta_object_id": "2014-045A",
        "meta_epoch": "2025-12-23T13:11:32.096256",
        "meta_mean_motion": 2.00573211,
        "meta_eccentricity": 0.00324114,
        "meta_inclination": 55.2352,
        "meta_ra_of_asc_node": 95.4677,
        "meta_arg_of_pericenter": 120.1575,
        "meta_mean_anomaly": 240.1743,
        "meta_ephemeris_type": 0,
        "meta_classification_type": "U",
        "meta_norad_cat_id": 40105,
        "meta_element_set_no": 999,
        "meta_rev_at_epoch": 8255,
        "meta_bstar": 0,
        "meta_mean_motion_dot": 8e-08,
        "meta_mean_motion_ddot": 0,
        "tle_line1": "1 40105U 14045A   25357.54967704  .00000008  00000+0  00000+0 0  9994",
        "tle_line2": "2 40105  55.2352  95.4677 0032411 120.1575 240.1743  2.00573211 82556"
      },
      "geometry": {
        "type": "Point",
        "coordinates": [
          -51.457975271602606,
          -38.2324841237096
        ]
      }
    }
  ]
}